CZ-7 R/B                
1 69050U 26102B   26141.37757395  .04275740  79686-5  33346-3 0  9993
2 69050  41.4921 119.9112 0043082 253.5033 106.1097 16.34780316  1672
DRAGON CRS-34           
1 69103U 26107A   26141.29411058  .00005910  00000+0  11416-3 0  9999
2 69103  51.6329  73.2330 0007523  82.0965 278.0877 15.49293486567639
