
    {
        "ARG_OF_PERICENTER": 253.5033,
        "BSTAR": 0.00033346259,
        "CLASSIFICATION_TYPE": "U",
        "ECCENTRICITY": 0.00430826,
        "ELEMENT_SET_NO": 999,
        "EPHEMERIS_TYPE": 0,
        "EPOCH": "2026-05-21T09:03:42.389280",
        "INCLINATION": 41.4921,
        "MEAN_ANOMALY": 106.1097,
        "MEAN_MOTION": 16.34780316,
        "MEAN_MOTION_DDOT": 7.968577e-06,
        "MEAN_MOTION_DOT": 0.0427574,
        "NORAD_CAT_ID": 69050,
        "OBJECT_ID": "2026-102B",
        "OBJECT_NAME": "CZ-7 R/B",
        "RA_OF_ASC_NODE": 119.9112,
        "REV_AT_EPOCH": 167
    },
    {
        "ARG_OF_PERICENTER": 82.0965,
        "BSTAR": 0.00011416167,
        "CLASSIFICATION_TYPE": "U",
        "ECCENTRICITY": 0.00075232,
        "ELEMENT_SET_NO": 999,
        "EPHEMERIS_TYPE": 0,
        "EPOCH": "2026-05-21T07:03:31.154112",
        "INCLINATION": 51.6329,
        "MEAN_ANOMALY": 278.0877,
        "MEAN_MOTION": 15.49293486,
        "MEAN_MOTION_DDOT": 0,
        "MEAN_MOTION_DOT": 5.91e-05,
        "NORAD_CAT_ID": 69103,
        "OBJECT_ID": "2026-107A",
        "OBJECT_NAME": "DRAGON CRS-34",
        "RA_OF_ASC_NODE": 73.233,
        "REV_AT_EPOCH": 56763
    }